ONEWEB-0136             
1 47282U 20100AA  26005.27275045  .00000254  00000+0  67114-3 0  9993
2 47282  87.8925  22.9993 0001299  84.8372 275.2905 13.12441220243291
ONEWEB-0137             
1 47283U 20100AB  26005.30661257 -.00000445  00000+0 -12716-2 0  9993
2 47283  87.8926  22.9981 0001791  94.7154 265.4179 13.12443118243208
ONEWEB-0138             
1 47284U 20100AC  26005.28459951 -.00000112  00000+0 -34709-3 0  9995
2 47284  87.8926  23.0110 0001510  89.9313 270.1988 13.12442207243284
ONEWEB-0139             
1 47285U 20100AD  26005.32539721  .00000138  00000+0  34685-3 0  9994
2 47285  87.8924  22.9922 0001676  91.7632 268.3688 13.12443083243368
ONEWEB-0140             
1 47286U 20100AE  26005.27953324  .00000055  00000+0  11649-3 0  9991
2 47286  87.8924  22.9887 0001599  89.9543 270.1769 13.12442704243329
ONEWEB-0141             
1 47287U 20100AF  26005.32510708  .00000148  00000+0  37590-3 0  9999
2 47287  87.8923  22.9879 0001845 101.3884 258.7452 13.12446892243313
ONEWEB-0142             
1 47288U 20100AG  26005.31353857 -.00000213  00000+0 -62679-3 0  9990
2 47288  87.8924  23.0138 0001608 105.3595 254.7712 13.12444973243307
ONEWEB-0143             
1 47289U 20100AH  26005.32356914  .00000107  00000+0  26138-3 0  9999
2 47289  87.8924  23.0076 0001740  92.5097 267.6231 13.12442871243281
